[{"OBJECT_NAME":"SL-8 R/B","OBJECT_ID":"1991-006B","EPOCH":"2026-03-20T07:14:44.483136","MEAN_MOTION":13.77495628,"ECCENTRICITY":0.0022421,"INCLINATION":82.9457,"RA_OF_ASC_NODE":162.1567,"ARG_OF_PERICENTER":9.2583,"MEAN_ANOMALY":51.8226,"EPHEMERIS_TYPE":0,"CLASSIFICATION_TYPE":"U","NORAD_CAT_ID":21088,"ELEMENT_SET_NO":999,"REV_AT_EPOCH":76553,"BSTAR":6.9792433e-5,"MEAN_MOTION_DOT":8.5e-7,"MEAN_MOTION_DDOT":0},{"OBJECT_NAME":"OKEAN-3","OBJECT_ID":"1991-039A","EPOCH":"2026-03-20T04:26:27.145824","MEAN_MOTION":15.04870461,"ECCENTRICITY":0.00128592,"INCLINATION":82.5188,"RA_OF_ASC_NODE":326.677,"ARG_OF_PERICENTER":297.8178,"MEAN_ANOMALY":62.1744,"EPHEMERIS_TYPE":0,"CLASSIFICATION_TYPE":"U","NORAD_CAT_ID":21397,"ELEMENT_SET_NO":999,"REV_AT_EPOCH":86661,"BSTAR":0.00011452243,"MEAN_MOTION_DOT":1.649e-5,"MEAN_MOTION_DDOT":0},{"OBJECT_NAME":"COSMOS 2151","OBJECT_ID":"1991-042A","EPOCH":"2026-03-20T05:20:13.464384","MEAN_MOTION":15.0014624,"ECCENTRICITY":0.00132767,"INCLINATION":82.4934,"RA_OF_ASC_NODE":73.5126,"ARG_OF_PERICENTER":31.2439,"MEAN_ANOMALY":328.9572,"EPHEMERIS_TYPE":0,"CLASSIFICATION_TYPE":"U","NORAD_CAT_ID":21422,"ELEMENT_SET_NO":999,"REV_AT_EPOCH":86477,"BSTAR":0.00012688391,"MEAN_MOTION_DOT":1.613e-5,"MEAN_MOTION_DDOT":0},{"OBJECT_NAME":"SL-14 R/B","OBJECT_ID":"1991-042B","EPOCH":"2026-03-19T21:16:40.473120","MEAN_MOTION":14.81839825,"ECCENTRICITY":0.0016449,"INCLINATION":82.4941,"RA_OF_ASC_NODE":210.6213,"ARG_OF_PERICENTER":203.1124,"MEAN_ANOMALY":156.9352,"EPHEMERIS_TYPE":0,"CLASSIFICATION_TYPE":"U","NORAD_CAT_ID":21423,"ELEMENT_SET_NO":999,"REV_AT_EPOCH":85458,"BSTAR":5.1488e-5,"MEAN_MOTION_DOT":4.31e-6,"MEAN_MOTION_DDOT":0},{"OBJECT_NAME":"ERS-1","OBJECT_ID":"1991-050A","EPOCH":"2026-03-20T01:18:24.428160","MEAN_MOTION":14.39456833,"ECCENTRICITY":0.00322014,"INCLINATION":98.7874,"RA_OF_ASC_NODE":97.5493,"ARG_OF_PERICENTER":169.6386,"MEAN_ANOMALY":190.5472,"EPHEMERIS_TYPE":0,"CLASSIFICATION_TYPE":"U","NORAD_CAT_ID":21574,"ELEMENT_SET_NO":999,"REV_AT_EPOCH":81722,"BSTAR":9.4547148e-5,"MEAN_MOTION_DOT":2.5e-6,"MEAN_MOTION_DDOT":0},{"OBJECT_NAME":"ARIANE 40 R/B","OBJECT_ID":"1991-050F","EPOCH":"2026-03-20T03:36:07.537536","MEAN_MOTION":14.42900774,"ECCENTRICITY":0.00040047,"INCLINATION":98.199,"RA_OF_ASC_NODE":130.9929,"ARG_OF_PERICENTER":58.2425,"MEAN_ANOMALY":301.9155,"EPHEMERIS_TYPE":0,"CLASSIFICATION_TYPE":"U","NORAD_CAT_ID":21610,"ELEMENT_SET_NO":999,"REV_AT_EPOCH":82050,"BSTAR":8.3371685e-5,"MEAN_MOTION_DOT":2.37e-6,"MEAN_MOTION_DDOT":0},{"OBJECT_NAME":"INTERCOSMOS 25","OBJECT_ID":"1991-086A","EPOCH":"2026-03-20T01:24:59.573376","MEAN_MOTION":12.12035399,"ECCENTRICITY":0.1486814,"INCLINATION":82.6034,"RA_OF_ASC_NODE":303.7406,"ARG_OF_PERICENTER":94.5923,"MEAN_ANOMALY":282.5896,"EPHEMERIS_TYPE":0,"CLASSIFICATION_TYPE":"U","NORAD_CAT_ID":21819,"ELEMENT_SET_NO":999,"REV_AT_EPOCH":49794,"BSTAR":0.00029644779,"MEAN_MOTION_DOT":1.55e-5,"MEAN_MOTION_DDOT":0},{"OBJECT_NAME":"SL-8 R/B","OBJECT_ID":"1992-008B","EPOCH":"2026-03-20T06:55:32.780640","MEAN_MOTION":13.7596964,"ECCENTRICITY":0.00358834,"INCLINATION":82.9223,"RA_OF_ASC_NODE":259.8915,"ARG_OF_PERICENTER":104.6598,"MEAN_ANOMALY":69.3343,"EPHEMERIS_TYPE":0,"CLASSIFICATION_TYPE":"U","NORAD_CAT_ID":21876,"ELEMENT_SET_NO":999,"REV_AT_EPOCH":71087,"BSTAR":-1.1555285e-5,"MEAN_MOTION_DOT":4.0e-8,"MEAN_MOTION_DDOT":0},{"OBJECT_NAME":"SL-8 R/B","OBJECT_ID":"1992-020B","EPOCH":"2026-03-20T05:45:17.056800","MEAN_MOTION":13.755502,"ECCENTRICITY":0.00275414,"INCLINATION":82.932,"RA_OF_ASC_NODE":145.9291,"ARG_OF_PERICENTER":267.9307,"MEAN_ANOMALY":155.0372,"EPHEMERIS_TYPE":0,"CLASSIFICATION_TYPE":"U","NORAD_CAT_ID":21938,"ELEMENT_SET_NO":999,"REV_AT_EPOCH":70258,"BSTAR":3.5924977e-5,"MEAN_MOTION_DOT":5.0e-7,"MEAN_MOTION_DDOT":0},{"OBJECT_NAME":"USA 81","OBJECT_ID":"1992-023A","EPOCH":"2026-03-20T04:58:31.471680","MEAN_MOTION":14.32371198,"ECCENTRICITY":0.0002156,"INCLINATION":85.0064,"RA_OF_ASC_NODE":125.3726,"ARG_OF_PERICENTER":70.4146,"MEAN_ANOMALY":289.7279,"EPHEMERIS_TYPE":0,"CLASSIFICATION_TYPE":"U","NORAD_CAT_ID":21949,"ELEMENT_SET_NO":999,"REV_AT_EPOCH":9629,"BSTAR":4.9101182e-5,"MEAN_MOTION_DOT":1.53e-6,"MEAN_MOTION_DDOT":0},{"OBJECT_NAME":"COSMOS 2219","OBJECT_ID":"1992-076A","EPOCH":"2026-03-20T04:51:30.568032","MEAN_MOTION":14.14093162,"ECCENTRICITY":0.00183654,"INCLINATION":71.0639,"RA_OF_ASC_NODE":356.0937,"ARG_OF_PERICENTER":192.2364,"MEAN_ANOMALY":167.8315,"EPHEMERIS_TYPE":0,"CLASSIFICATION_TYPE":"U","NORAD_CAT_ID":22219,"ELEMENT_SET_NO":999,"REV_AT_EPOCH":71986,"BSTAR":-4.6942828e-5,"MEAN_MOTION_DOT":-1.37e-6,"MEAN_MOTION_DDOT":0},{"OBJECT_NAME":"SL-16 R/B","OBJECT_ID":"1992-076B","EPOCH":"2026-03-20T06:51:09.175104","MEAN_MOTION":14.16861172,"ECCENTRICITY":0.00106332,"INCLINATION":71.0006,"RA_OF_ASC_NODE":166.0557,"ARG_OF_PERICENTER":76.7952,"MEAN_ANOMALY":339.1791,"EPHEMERIS_TYPE":0,"CLASSIFICATION_TYPE":"U","NORAD_CAT_ID":22220,"ELEMENT_SET_NO":999,"REV_AT_EPOCH":72333,"BSTAR":0.00016454663,"MEAN_MOTION_DOT":2.82e-6,"MEAN_MOTION_DDOT":0},{"OBJECT_NAME":"COSMOS 2221","OBJECT_ID":"1992-080A","EPOCH":"2026-03-20T06:29:56.112576","MEAN_MOTION":14.96240706,"ECCENTRICITY":0.0014951,"INCLINATION":82.5,"RA_OF_ASC_NODE":268.9426,"ARG_OF_PERICENTER":152.2249,"MEAN_ANOMALY":207.9775,"EPHEMERIS_TYPE":0,"CLASSIFICATION_TYPE":"U","NORAD_CAT_ID":22236,"ELEMENT_SET_NO":999,"REV_AT_EPOCH":78237,"BSTAR":0.00014936151,"MEAN_MOTION_DOT":1.714e-5,"MEAN_MOTION_DDOT":0},{"OBJECT_NAME":"SL-16 R/B","OBJECT_ID":"1992-093B","EPOCH":"2026-03-20T03:04:20.845920","MEAN_MOTION":14.15448693,"ECCENTRICITY":0.00062993,"INCLINATION":71.0238,"RA_OF_ASC_NODE":342.3551,"ARG_OF_PERICENTER":283.1779,"MEAN_ANOMALY":76.8641,"EPHEMERIS_TYPE":0,"CLASSIFICATION_TYPE":"U","NORAD_CAT_ID":22285,"ELEMENT_SET_NO":999,"REV_AT_EPOCH":71463,"BSTAR":0.00015685228,"MEAN_MOTION_DOT":2.59e-6,"MEAN_MOTION_DDOT":0},{"OBJECT_NAME":"COSMOS 2228","OBJECT_ID":"1992-094A","EPOCH":"2026-03-20T05:07:06.139200","MEAN_MOTION":14.97241291,"ECCENTRICITY":0.00166079,"INCLINATION":82.517,"RA_OF_ASC_NODE":227.2335,"ARG_OF_PERICENTER":266.3153,"MEAN_ANOMALY":93.6171,"EPHEMERIS_TYPE":0,"CLASSIFICATION_TYPE":"U","NORAD_CAT_ID":22286,"ELEMENT_SET_NO":999,"REV_AT_EPOCH":77763,"BSTAR":0.00018140646,"MEAN_MOTION_DOT":2.131e-5,"MEAN_MOTION_DDOT":0},{"OBJECT_NAME":"SL-16 R/B","OBJECT_ID":"1993-016B","EPOCH":"2026-03-20T07:27:33.729120","MEAN_MOTION":14.15307286,"ECCENTRICITY":0.00123213,"INCLINATION":71.0081,"RA_OF_ASC_NODE":192.8749,"ARG_OF_PERICENTER":300.2948,"MEAN_ANOMALY":59.6955,"EPHEMERIS_TYPE":0,"CLASSIFICATION_TYPE":"U","NORAD_CAT_ID":22566,"ELEMENT_SET_NO":999,"REV_AT_EPOCH":70367,"BSTAR":-0.00011128459,"MEAN_MOTION_DOT":-2.65e-6,"MEAN_MOTION_DDOT":0},{"OBJECT_NAME":"COSMOS 2242","OBJECT_ID":"1993-024A","EPOCH":"2026-03-20T04:47:58.160544","MEAN_MOTION":14.96590356,"ECCENTRICITY":0.00149378,"INCLINATION":82.5152,"RA_OF_ASC_NODE":256.6604,"ARG_OF_PERICENTER":270.276,"MEAN_ANOMALY":89.675,"EPHEMERIS_TYPE":0,"CLASSIFICATION_TYPE":"U","NORAD_CAT_ID":22626,"ELEMENT_SET_NO":999,"REV_AT_EPOCH":78196,"BSTAR":0.00014786169,"MEAN_MOTION_DOT":1.712e-5,"MEAN_MOTION_DDOT":0}]
