SL-8 R/B                
1 21088U 91006B   26079.30190374  .00000085  00000+0  69792-4 0  9995
2 21088  82.9457 162.1567 0022421   9.2583  51.8226 13.77495628765534
OKEAN-3                 
1 21397U 91039A   26079.18503641  .00001649  00000+0  11452-3 0  9991
2 21397  82.5188 326.6770 0012859 297.8178  62.1744 15.04870461866611
COSMOS 2151             
1 21422U 91042A   26079.22237806  .00001613  00000+0  12688-3 0  9999
2 21422  82.4934  73.5126 0013276  31.2439 328.9572 15.00146240864779
SL-14 R/B               
1 21423U 91042B   26078.88657955  .00000431  00000+0  51488-4 0  9991
2 21423  82.4941 210.6213 0016449 203.1124 156.9352 14.81839825854584
ERS-1                   
1 21574U 91050A   26079.05444940  .00000250  00000+0  94547-4 0  9997
2 21574  98.7874  97.5493 0032201 169.6386 190.5472 14.39456833817222
ARIANE 40 R/B           
1 21610U 91050F   26079.15008724  .00000237  00000+0  83372-4 0  9994
2 21610  98.1990 130.9929 0004004  58.2425 301.9155 14.42900774820502
INTERCOSMOS 25          
1 21819U 91086A   26079.05902284  .00001550  00000+0  29645-3 0  9998
2 21819  82.6034 303.7406 1486814  94.5923 282.5896 12.12035399497941
SL-8 R/B                
1 21876U 92008B   26079.28857385  .00000004  00000+0 -11555-4 0  9998
2 21876  82.9223 259.8915 0035883 104.6598  69.3343 13.75969640710872
SL-8 R/B                
1 21938U 92020B   26079.23978075  .00000050  00000+0  35925-4 0  9993
2 21938  82.9320 145.9291 0027541 267.9307 155.0372 13.75550200702586
USA 81                  
1 21949U 92023A   26079.20730870  .00000153  00000+0  49101-4 0  9999
2 21949  85.0064 125.3726 0002156  70.4146 289.7279 14.32371198 96291
COSMOS 2219             
1 22219U 92076A   26079.20243713 -.00000137  00000+0 -46943-4 0  9998
2 22219  71.0639 356.0937 0018365 192.2364 167.8315 14.14093162719860
SL-16 R/B               
1 22220U 92076B   26079.28552286  .00000282  00000+0  16455-3 0  9999
2 22220  71.0006 166.0557 0010633  76.7952 339.1791 14.16861172723331
COSMOS 2221             
1 22236U 92080A   26079.27078834  .00001714  00000+0  14936-3 0  9995
2 22236  82.5000 268.9426 0014951 152.2249 207.9775 14.96240706782377
SL-16 R/B               
1 22285U 92093B   26079.12801905  .00000259  00000+0  15685-3 0  9995
2 22285  71.0238 342.3551 0006299 283.1779  76.8641 14.15448693714636
COSMOS 2228             
1 22286U 92094A   26079.21326550  .00002131  00000+0  18141-3 0  9996
2 22286  82.5170 227.2335 0016607 266.3153  93.6171 14.97241291777632
SL-16 R/B               
1 22566U 93016B   26079.31080705 -.00000265  00000+0 -11128-3 0  9998
2 22566  71.0081 192.8749 0012321 300.2948  59.6955 14.15307286703674
COSMOS 2242             
1 22626U 93024A   26079.19997871  .00001712  00000+0  14786-3 0  9990
2 22626  82.5152 256.6604 0014937 270.2760  89.6750 14.96590356781964
